STARLINK-36264          
1 68307U 26057P   26090.83335647 -.01410777  59120-3 -35578-2 0  9999
2 68307  97.2774 214.2233 0001387  83.3946 152.2035 15.95658902  2933
STARLINK-37138          
1 68308U 26057Q   26090.83335647 -.01412404  59306-3 -35436-2 0  9998
2 68308  97.2767 214.2237 0001354  94.5721 143.9325 15.95755163  2609
STARLINK-37149          
1 68309U 26057R   26090.83335647 -.01401256  58491-3 -35005-2 0  9998
2 68309  97.2763 214.2250 0001336  88.8975 153.1998 15.95834426  2719
STARLINK-37148          
1 68310U 26057S   26090.83335647 -.01413702  59570-3 -34976-2 0  9994
2 68310  97.2760 214.2282 0001381  84.7004 164.8544 15.96015992  2829
STARLINK-37140          
1 68311U 26057T   26090.83335647 -.01408619  59117-3 -35021-2 0  9995
2 68311  97.2764 214.2273 0001327  83.0828 162.9291 15.95924235  2972
STARLINK-36854          
1 68312U 26057U   26090.83335647 -.01404310  58894-3 -34578-2 0  9997
2 68312  97.2761 214.2304 0001435  84.6692 168.3333 15.96103447  2771
STARLINK-36815          
1 68313U 26057V   26090.83335647 -.01402420  58801-3 -34371-2 0  9997
2 68313  97.2762 214.2324 0001360  82.2766 174.7784 15.96189367  2774
STARLINK-37155          
1 68314U 26057W   26090.83335647 -.01423773  60593-3 -34540-2 0  9991
2 68314  97.2756 214.2356 0001416  80.0170 185.4650 15.96381722  2826
STARLINK-37150          
1 68315U 26057X   26090.50002315 -.01508059  68032-3 -34931-2 0  9990
2 68315  97.2756 213.8740 0001423  75.3830  71.3696 15.97245182  2763
STARLINK-37154          
1 68316U 26057Y   26090.58335648 -.01461515  64213-3 -33784-2 0  9994
2 68316  97.2749 213.9690 0001350  74.1422 203.6921 15.97276477  2687
STARLINK-37139          
1 68317U 26057Z   26090.58335648 -.01454146  63543-3 -33803-2 0  9994
2 68317  97.2750 213.9671 0001346  75.3900 198.2827 15.97172444  2535
STARLINK-37113          
1 68318U 26057AA  26090.50002315 -.01519226  69267-3 -34434-2 0  9990
2 68318  97.2748 213.8809 0001539  65.7433  97.5267 15.97643016  2765
